INTELSAT 701 (IS-701)   
1 22871U 93066A   17279.63251177  .00000022  00000-0  00000+0 0  9995
2 22871   4.4045  66.4665 0003308 158.1432 222.1863  0.99322133 87506
INTELSAT 26 (IS-26)     
1 24732U 97007A   17280.02442271 -.00000015  00000-0  00000+0 0  9997
2 24732   7.6283  49.2115 0004267 176.9516 224.3034  1.00272657 75440
GALAXY 25 (G-25)        
1 24812U 97026A   17280.21408833 -.00000172  00000-0  00000+0 0  9998
2 24812   0.0181 207.3035 0003313 353.2428 159.4403  1.00269869 74521
INTELSAT 5 (IS-5)       
1 24916U 97046A   17279.71758227 -.00000148  00000-0  00000+0 0  9996
2 24916   3.7600  70.5172 0003593 148.6788 211.6053  1.00273080 73777
INTELSAT 805 (IS-805)   
1 25371U 98037A   17280.50292524 -.00000040  00000-0  00000+0 0  9996
2 25371   0.2457  93.9332 0003429 114.2423 158.2435  1.00272781 70735
AFRISTAR                
1 25515U 98063A   17280.15937185  .00000117  00000-0  00000+0 0  9999
2 25515   3.5106  69.3276 0004212 133.5461 251.5239  1.00268811 69290
INTELSAT 8 (IS-8)       
1 25522U 98065A   17279.85396560 -.00000179  00000-0  00000-0 0  9990
2 25522   1.2552  87.3110 0296350 222.6372   8.0027  0.95186284 14580
GALAXY 11 (G-11)        
1 26038U 99071A   17280.59132095  .00000127  00000-0  00000+0 0  9996
2 26038   0.0753  77.9060 0000540 209.4990 346.8269  1.00272046 65266
SIRIUS-1                
1 26390U 00035A   17279.90056410  .00000010  00000-0  00000-0 0  9990
2 26390  59.5018 223.9975 0003303 255.0006 286.3626  1.57876917 21764
INTELSAT 9 (IS-9)       
1 26451U 00043A   17280.69837635 -.00000224  00000-0  00000+0 0  9998
2 26451   3.7475  70.7277 0003203 142.5541  25.1946  1.00272433 63015
INTELSAT 12 (IS-12)     
1 26590U 00068A   17280.15695111  .00000127  00000-0  00000+0 0  9992
2 26590   0.7172  92.2121 0003265 119.8838 265.4208  1.00271712 61962
INTELSAT 1R (IS-1R)     
1 26608U 00072A   17280.80882887 -.00000099  00000-0  00000+0 0  9996
2 26608   0.5413  94.4300 0000341 326.3405  51.5034  1.00182152 61823
INTELSAT 10 (IS-10)     
1 26766U 01019A   17280.19571931  .00000117  00000-0  00000+0 0  9990
2 26766   1.7463  84.6114 0001751 126.0590 283.3374  1.00271458 60094
INTELSAT 901 (IS-901)   
1 26824U 01024A   17280.22715810 -.00000151  00000-0  00000+0 0  9990
2 26824   0.0257 266.5660 0002756 292.6380 240.6647  1.00271949 59768
INTELSAT 902 (IS-902)   
1 26900U 01039A   17280.73521456  .00000022  00000-0  00000+0 0  9994
2 26900   0.0299 112.9842 0002925  92.6821 137.5887  1.00271987 58931
DIRECTV 4S              
1 26985U 01052A   17280.53799355 -.00000124  00000-0  00000+0 0  9999
2 26985   0.0105 218.3521 0003198 348.8162 261.7147  1.00271070 58169
INTELSAT 904 (IS-904)   
1 27380U 02007A   17280.59132095  .00000126  00000-0  00000+0 0  9999
2 27380   0.0194 147.4647 0002866  47.3594  79.5986  1.00271813 57259
INTELSAT 903 (IS-903)   
1 27403U 02016A   17280.69837635 -.00000234  00000-0  00000+0 0  9999
2 27403   0.0794  94.2022 0002505  49.2647  92.9997  1.00270848 56816
DIRECTV 5 (TEMPO 1)     
1 27426U 02023A   17279.26386461 -.00000066  00000-0  00000+0 0  9992
2 27426   0.0154 248.6759 0003474 317.1881 154.1498  1.00271921 56467
INTELSAT 905 (IS-905)   
1 27438U 02027A   17279.85879281 -.00000194  00000-0  00000-0 0  9994
2 27438   0.0179 231.0869 0002802 314.2339 115.0808  1.00270579 19531
GALAXY 3C (G-3C)        
1 27445U 02030A   17280.21932655 -.00000161  00000-0  00000+0 0  9996
2 27445   0.0251 275.3532 0001604  47.7860  36.8814  1.00270324 56125
INTELSAT 906 (IS-906)   
1 27513U 02041A   17280.36438265  .00000004  00000-0  00000+0 0  9993
2 27513   0.0290 250.2887 0002822 304.3908  16.8749  1.00272543 55137
INTELSAT 907 (IS-907)   
1 27683U 03007A   17279.03501952 -.00000211  00000-0  00000+0 0  9991
2 27683   0.0124 219.0060 0002999 332.2163 168.8020  1.00272926 53543
GALAXY 12 (G-12)        
1 27715U 03013B   17280.49244640  .00000048  00000-0  00000+0 0  9991
2 27715   0.0294 119.9523 0002375  91.3412 213.3328  1.00272405 53175
GALAXY 23 (G-23)        
1 27854U 03034A   17280.49686000  .00000002  00000-0  00000+0 0  9998
2 27854   0.0018 184.6513 0002839  11.7644 237.8078  1.00272938 56716
GALAXY 13 (HORIZONS-1)  
1 27954U 03044A   17279.61197282  .00000038  00000-0  00000+0 0  9990
2 27954   0.0144 138.1589 0001859  74.1622 256.4679  1.00270410 51312
DIRECTV 7S              
1 28238U 04016A   17279.96993840 -.00000009  00000-0  00000+0 0  9997
2 28238   0.0055 148.0964 0003634  63.3158  34.5332  1.00271775 49226
INTELSAT 10-02          
1 28358U 04022A   17280.68379359 -.00000021  00000-0  00000+0 0  9995
2 28358   0.0218 144.4543 0001531 155.3002 321.9718  1.00272719 48798
XM-3 (RHYTHM)           
1 28626U 05008A   17280.45396479 -.00000216  00000-0  00000+0 0  9991
2 28626   0.0090  27.5477 0000486 164.2492 262.8638  1.00271688 46236
SPACEWAY 1              
1 28644U 05015A   17279.82410521 -.00000111  00000-0  00000-0 0  9998
2 28644   0.0144 233.0884 0000333 354.8402 341.4942  1.00269293 14743
DIRECTV 8               
1 28659U 05019A   17279.23820384 -.00000125  00000-0  00000+0 0  9999
2 28659   0.0200 242.8250 0003439 321.5684 155.6214  1.00272357 45342
GALAXY 28 (G-28)        
1 28702U 05022A   17280.52823823 -.00000195  00000-0  00000+0 0  9994
2 28702   0.0237 213.0032 0000159 283.2342 341.2797  1.00270465 44997
GALAXY 14 (G-14)        
1 28790U 05030A   17280.61266584  .00000026  00000-0  00000+0 0  9997
2 28790   0.0261 108.0352 0002728  94.5512 269.4387  1.00272264 44473
GALAXY 15 (G-15)        
1 28884U 05041A   17280.51212170  .00000068  00000-0  00000+0 0  9990
2 28884   0.0290 103.7096 0001190 109.8155 214.2092  1.00273218 43796
SPACEWAY 2              
1 28903U 05046B   17280.86299384 -.00000138  00000-0  00000+0 0  9996
2 28903   0.0457  34.4387 0000116 284.0887 269.8063  1.00271951 43663
GALAXY 16 (G-16)        
1 29236U 06023A   17280.17867705 -.00000137  00000-0  00000+0 0  9993
2 29236   0.0098 144.5010 0002870  53.9986 142.8589  1.00271428 41426
DIRECTV 9S              
1 29494U 06043A   17280.86299384 -.00000125  00000-0  00000+0 0  9996
2 29494   0.0224 140.9901 0003262  55.3690  29.9317  1.00272098 40276
XM-4 (BLUES)            
1 29520U 06049A   17280.28512295 -.00000033  00000-0  00000+0 0  9995
2 29520   0.0071  38.1063 0000107 196.8776 128.5884  1.00272086 40164
GALAXY 17 (G-17)        
1 31307U 07016B   17280.42636480 -.00000185  00000-0  00000+0 0  9993
2 31307   0.0364 328.2608 0003962 242.7884 227.7329  1.00271478 38242
DIRECTV 10              
1 31862U 07032A   17280.24105654 -.00000113  00000-0  00000+0 0  9992
2 31862   0.0060 273.9140 0000362 328.4591 117.6233  1.00269970 37576
SPACEWAY 3              
1 32018U 07036A   17280.55444828 -.00000162  00000-0  00000+0 0  9997
2 32018   0.0055 126.6138 0000226 118.2563 236.1883  1.00270903 37293
INTELSAT 11 (IS-11)     
1 32253U 07044B   17280.41387663 -.00000279  00000-0  00000+0 0  9994
2 32253   0.0173 199.0532 0001860  11.2578 271.9763  1.00271835 36692
HORIZONS-2              
1 32388U 07063B   17280.17757736 -.00000192  00000-0  00000+0 0  9993
2 32388   0.0114 265.1721 0002734 291.2387 328.3910  1.00270502 36040
DIRECTV 11              
1 32729U 08013A   17280.17867969 -.00000136  00000-0  00000+0 0  9996
2 32729   0.0101  33.8796 0000369 179.5633 127.7371  1.00271591 35096
GALAXY 18 (G-18)        
1 32951U 08024A   17279.29959347  .00000016  00000-0  00000-0 0  9995
2 32951   0.0113 224.1417 0003403 339.7124 156.1613  1.00272137 14053
INTELSAT 25 (IS-25)     
1 33153U 08034A   17279.04604473 -.00000233  00000-0  00000-0 0  9993
2 33153   0.0185 239.0369 0002324 340.7240 140.2531  1.00271639 33904
GALAXY 19 (G-19)        
1 33376U 08045A   17279.22755448 -.00000149  00000-0  00000+0 0  9996
2 33376   0.0108 207.3560 0003230 352.3772 160.2854  1.00272098 32991
SIRIUS FM-5             
1 35493U 09034A   17280.85327249 -.00000211  00000-0  00000+0 0  9992
2 35493   0.0219 282.2442 0000590  99.7112 215.7867  1.00272589 30143
INTELSAT 14 (IS-14)     
1 36097U 09064A   17280.08074055 -.00000284  00000-0  00000+0 0  9995
2 36097   0.0205 188.3321 0002705  11.8279 159.8293  1.00270333 28873
INTELSAT 15 (IS-15)     
1 36106U 09067A   17280.72549610 -.00000196  00000-0  00000+0 0  9996
2 36106   0.0184 248.6721 0002535 318.0423 156.1906  1.00270975 28770
DIRECTV 12              
1 36131U 09075A   17280.52773753 -.00000114  00000-0  00000+0 0  9998
2 36131   0.0146 283.1638 0000224 323.3169 217.0880  1.00271661 28553
INTELSAT 16 (IS-16)     
1 36397U 10006A   17280.84354838 -.00000296  00000-0  00000+0 0  9993
2 36397   0.0186 159.5475 0001791  48.6934  54.0423  1.00272360 27900
XM-5                    
1 37185U 10053A   17280.52823823 -.00000215  00000-0  00000+0 0  9992
2 37185   0.0186 233.8656 0001603 126.9638 120.5171  1.00271620 25619
INTELSAT 17 (IS-17)     
1 37238U 10065B   17280.85947866 -.00000013  00000-0  00000+0 0  9990
2 37238   0.0190 211.6852 0003067 349.1834 191.2467  1.00272467 25093
INTELSAT NEW DAWN       
1 37392U 11016A   17280.80728464  .00000145  00000-0  00000+0 0  9999
2 37392   0.0189 222.8731 0001418  25.3575  91.8547  1.00272412 23682
INTELSAT 18 (IS-18)     
1 37834U 11056A   17280.51615185  .00000043  00000-0  00000+0 0  9994
2 37834   0.0192 230.5163 0002137 329.9043 181.7653  1.00272067 22024
INTELSAT 22 (IS-22)     
1 38098U 12011A   17279.75643721 -.00000069  00000-0  00000-0 0  9990
2 38098   0.0217  73.0715 0002039 120.4131 166.5415  1.00272427 19990
INTELSAT 19 (IS-19)     
1 38356U 12030A   17280.49353243 -.00000066  00000-0  00000+0 0  9994
2 38356   0.0256  75.2599 0002883 126.5981 158.1613  1.00272601 19688
INTELSAT 20 (IS-20)     
1 38740U 12043A   17280.76356474 -.00000035  00000-0  00000+0 0  9990
2 38740   0.0310 177.2572 0002307   5.7008 177.0407  1.00269861 19000
INTELSAT 21 (IS-21)     
1 38749U 12045A   17279.11951094 -.00000295  00000-0  00000+0 0  9995
2 38749   0.0126 239.5965 0002485 316.3351 164.0917  1.00272875 18797
INTELSAT 23 (IS-23)     
1 38867U 12057A   17279.10566221 -.00000294  00000-0  00000+0 0  9991
2 38867   0.0292 250.2755 0002046 298.9134 170.8384  1.00272241 18268
SIRIUS FM-6             
1 39360U 13058A   17279.28065690 -.00000027  00000-0  00000+0 0  9999
2 39360   0.0203 249.8575 0000368 195.6377 274.5401  1.00273252 14508
INTELSAT 30 (IS-30)     
1 40271U 14062A   17280.33415243 -.00000160  00000-0  00000+0 0  9997
2 40271   0.0198 210.0717 0001769 246.8370 304.4993  1.00266620 10933
INTELSAT 34 (IS-34)     
1 40874U 15039A   17280.10988386 -.00000295  00000-0  00000+0 0  9998
2 40874   0.0208 224.6390 0000411   6.6812 128.7078  1.00275493  7843
INTELSAT 29E (IS-29E)   
1 41308U 16004A   17279.09737676 -.00000292  00000-0  00000+0 0  9991
2 41308   0.0245 247.7139 0001869 301.1887 171.1251  1.00272692  6311
INTELSAT 31 (IS-31)     
1 41581U 16035A   17279.22217528 -.00000160  00000-0  00000+0 0  9996
2 41581   0.0204 234.9825 0001580 347.4394 137.5971  1.00270442  4858
INTELSAT 36 (IS-36)     
1 41747U 16053A   17279.76634110 -.00000034  00000-0  00000+0 0  9999
2 41747   0.0121 232.4184 0003071 100.2634  27.3021  1.00270294  4138
INTELSAT 33E (IS-33E)   
1 41748U 16053B   17279.78987633  .00000040  00000-0  00000+0 0  9999
2 41748   0.0084 129.5572 0003359  79.1978 151.2265  1.00269421  4382
